[{"OBJECT_NAME":"BB 2","OBJECT_ID":"2023-050J","EPOCH":"2026-03-09T22:07:12.923904","MEAN_MOTION":13.82406708,"ECCENTRICITY":0.00102033,"INCLINATION":81.0051,"RA_OF_ASC_NODE":175.6256,"ARG_OF_PERICENTER":200.1323,"MEAN_ANOMALY":159.9431,"EPHEMERIS_TYPE":0,"CLASSIFICATION_TYPE":"U","NORAD_CAT_ID":56170,"ELEMENT_SET_NO":999,"REV_AT_EPOCH":14781,"BSTAR":0.00021631056,"MEAN_MOTION_DOT":2.45e-6,"MEAN_MOTION_DDOT":0},{"OBJECT_NAME":"COSMOS 1275 DEB","OBJECT_ID":"1981-053TW","EPOCH":"2026-03-08T00:09:19.254240","MEAN_MOTION":13.88195016,"ECCENTRICITY":0.00400666,"INCLINATION":82.9221,"RA_OF_ASC_NODE":165.6884,"ARG_OF_PERICENTER":64.5549,"MEAN_ANOMALY":60.6632,"EPHEMERIS_TYPE":0,"CLASSIFICATION_TYPE":"U","NORAD_CAT_ID":42206,"ELEMENT_SET_NO":999,"REV_AT_EPOCH":49094,"BSTAR":0.00070551757,"MEAN_MOTION_DOT":8.64e-6,"MEAN_MOTION_DDOT":0}]
